QIANFAN-49              
1 62250U 24232P   25210.56077223  .00000038  00000+0  41039-4 0  9991
2 62250  88.9932  55.0041 0012684 223.4265 136.5888 13.50960987 49455
QIANFAN-50              
1 62251U 24232Q   25209.62279306  .00000023  00000+0  16913-4 0  9990
2 62251  88.9938  55.1001 0014241 228.5758 131.4170 13.50953948 49359
QIANFAN-51              
1 62252U 24232R   25209.82851225  .00000038  00000+0  40643-4 0  9992
2 62252  88.9932  55.0816 0011680 231.1293 128.8817 13.50957999 49375
QIANFAN-52              
1 62253U 24232S   25210.52389125  .00000044  00000+0  49054-4 0  9999
2 62253  88.9928  54.8896 0013900 220.9702 139.0406 13.50959144 49556
QIANFAN-53              
1 62254U 24232T   25209.83674104  .00000029  00000+0  26854-4 0  9992
2 62254  88.9936  55.0538 0012703 223.9996 136.0145 13.50952839 49427
QIANFAN-54              
1 62255U 24232U   25210.54439100  .00000011  00000+0 -17496-5 0  9993
2 62255  88.9927  54.6721 0000165 311.9962  48.1176 13.50951772 81021
QIANFAN-55              
1 62785U 25016A   25209.53357219  .00000151  00000+0  21452-3 0  9998
2 62785  88.9853 117.3582 0018989  30.2117 330.0125 13.50962074 28660
QIANFAN-56              
1 62786U 25016B   25209.55000315  .00000150  00000+0  21404-3 0  9999
2 62786  88.9826 117.2303 0017701  32.7674 327.4571 13.50953973 28716
